62787,QIANFAN-57,2025,106.59,-1.0,+,88.98,Active,0,LEO,PRC,China,Unknown,Unknown,Unknown,1 62787U 25016C   25266.02077060  .00000069  00000+0  87620-4 0  9998,2 62787  88.9766 111.5359 0002316  65.2086 294.9306 13.50965540 36303,13.5096554,0.0002316,LEO
62788,QIANFAN-58,2025,106.59,-1.0,+,88.97,Active,0,LEO,PRC,China,Unknown,Unknown,Unknown,1 62788U 25016D   25267.32505079  .00000051  00000+0  59728-4 0  9998,2 62788  88.9733 111.2574 0012790 206.8581 153.1909 13.50972217 36522,13.50972217,0.001279,LEO
62789,QIANFAN-59,2025,106.62,-1.0,+,88.99,Active,0,LEO,PRC,China,Unknown,Unknown,Unknown,1 62789U 25016E   25267.72003373  .00000069  00000+0  88831-4 0  9999,2 62789  88.9758 111.2714 0013076 209.7576 150.2833 13.50964392 36574,13.50964392,0.0013076,LEO
62790,QIANFAN-60,2025,106.47,-1.0,+,88.97,Active,0,LEO,PRC,China,Unknown,Unknown,Unknown,1 62790U 25016F   25267.31598872  .00000053  00000+0  61403-4 0  9998,2 62790  88.9739 111.3015 0014335 208.1395 151.8984 13.52523749 36507,13.52523749,0.0014335,LEO
62791,QIANFAN-61,2025,106.59,-1.0,+,88.98,Active,0,LEO,PRC,China,Unknown,Unknown,Unknown,1 62791U 25016G   25267.26739715  .00000063  00000+0  79467-4 0  9996,2 62791  88.9805 111.4136 0013641 206.9979 153.0464 13.50971829 36512,13.50971829,0.0013641,LEO
62792,QIANFAN-62,2025,106.59,-1.0,+,88.98,Active,0,LEO,PRC,China,Unknown,Unknown,Unknown,1 62792U 25016H   25267.27154279  .00000065  00000+0  82722-4 0  9994,2 62792  88.9752 111.3245 0015005 207.9162 152.1186 13.50965838 36508,13.50965838,0.0015005,LEO
62793,QIANFAN-63,2025,106.69,-1.0,+,88.98,Active,0,LEO,PRC,China,Unknown,Unknown,Unknown,1 62793U 25016J   25266.77739156  .00000086  00000+0  11768-3 0  9996,2 62793  88.9760 111.3217 0014609 215.7404 144.2770 13.49732499 36472,13.49732499,0.0014609,LEO
62794,QIANFAN-64,2025,106.48,-1.0,+,88.97,Active,0,LEO,PRC,China,Unknown,Unknown,Unknown,1 62794U 25016K   25266.00459885  .00000081  00000+0  10493-3 0  9990,2 62794  88.9747 111.3867 0012822 207.8155 152.2313 13.52421057 36368,13.52421057,0.0012822,LEO
